SL-3 R/B                
1 13403U 82079B   25352.26316600  .00005221  00000+0  21455-3 0  9997
2 13403  81.1473 289.1493 0027117  81.3248 279.1055 15.23650906365298
SL-14 R/B               
1 13553U 82092B   25352.14317852  .00000398  00000+0  42046-4 0  9995
2 13553  82.5677 217.6586 0019549 208.1704 268.7742 14.86560829316813
SL-3 R/B                
1 13819U 83010B   25352.28231148  .00013109  00000+0  28923-3 0  9990
2 13819  81.1048 101.8531 0016874 331.5741  28.4580 15.43605501345374
SL-3 R/B                
1 14208U 83075B   25352.25888624  .00009387  00000+0  26575-3 0  9992
2 14208  97.6098 348.9282 0023349 156.1117 204.1215 15.36245669317648
COSMOS 1536             
1 14699U 84013A   25352.26121099  .00005171  00000+0  22077-3 0  9996
2 14699  82.5443 188.6881 0013898 204.8151 155.2419 15.22579372260229
SL-14 R/B               
1 14820U 84027B   25352.27959381  .00000443  00000+0  47976-4 0  9994
2 14820  82.5415 321.3606 0016511 240.7219 119.2347 14.85880366235547
SL-8 R/B                
1 15483U 85006B   25352.24909611  .00000193  00000+0  72630-4 0  9993
2 15483  74.0465  50.9989 0018911 342.0169  82.8749 14.37724273142324
SL-12 R/B(2)            
1 15772U 85042D   25352.17120600  .00000121  00000+0  75883-4 0  9993
2 15772  71.1079 259.9457 0037486 253.5679 211.2964 14.21953584102803
SL-14 R/B               
1 15945U 85069B   25352.28917261  .00000455  00000+0  48673-4 0  9990
2 15945  82.5272 101.4861 0020338 101.4214 258.9288 14.86331008160746
SL-16 R/B               
1 16182U 85097B   25352.29563616  .00000140  00000+0  94226-4 0  9993
2 16182  71.0037 311.9061 0007056   1.8244 101.5352 14.16587281 75705
SL-14 R/B               
1 16496U 86006B   25352.21906506  .00000522  00000+0  52865-4 0  9990
2 16496  82.5267 336.3951 0076639 181.5626 178.5365 14.86678851137109
COSMOS 1743             
1 16719U 86034A   25352.19821388  .00027848  00000+0  45397-3 0  9991
2 16719  82.5338 158.9207 0004763 229.2843 130.7997 15.52452958167586
