CCSDS_OMM_VERS = 2.0
CREATION_DATE  = 
ORIGINATOR     = 

OBJECT_NAME    = SL-3 R/B
OBJECT_ID      = 1982-079B
CENTER_NAME    = EARTH
REF_FRAME      = TEME
TIME_SYSTEM    = UTC
MEAN_ELEMENT_THEORY = SGP/SGP4

EPOCH          = 2025-12-18T06:18:57.542400
MEAN_MOTION    = 15.23650906
ECCENTRICITY   = .00271179
INCLINATION    = 81.1473
RA_OF_ASC_NODE = 289.1493
ARG_OF_PERICENTER = 81.3248
MEAN_ANOMALY   = 279.1055

EPHEMERIS_TYPE = 0
CLASSIFICATION_TYPE = U
NORAD_CAT_ID   = 13403
ELEMENT_SET_NO = 999
REV_AT_EPOCH   = 36529
BSTAR          = .21455451E-3
MEAN_MOTION_DOT = .5221E-4
MEAN_MOTION_DDOT = 0

CCSDS_OMM_VERS = 2.0
CREATION_DATE  = 
ORIGINATOR     = 

OBJECT_NAME    = SL-14 R/B
OBJECT_ID      = 1982-092B
CENTER_NAME    = EARTH
REF_FRAME      = TEME
TIME_SYSTEM    = UTC
MEAN_ELEMENT_THEORY = SGP/SGP4

EPOCH          = 2025-12-18T03:26:10.624128
MEAN_MOTION    = 14.86560829
ECCENTRICITY   = .00195494
INCLINATION    = 82.5677
RA_OF_ASC_NODE = 217.6586
ARG_OF_PERICENTER = 208.1704
MEAN_ANOMALY   = 268.7742

EPHEMERIS_TYPE = 0
CLASSIFICATION_TYPE = U
NORAD_CAT_ID   = 13553
ELEMENT_SET_NO = 999
REV_AT_EPOCH   = 31681
BSTAR          = .42046378E-4
MEAN_MOTION_DOT = .398E-5
MEAN_MOTION_DDOT = 0

CCSDS_OMM_VERS = 2.0
CREATION_DATE  = 
ORIGINATOR     = 

OBJECT_NAME    = SL-3 R/B
OBJECT_ID      = 1983-010B
CENTER_NAME    = EARTH
REF_FRAME      = TEME
TIME_SYSTEM    = UTC
MEAN_ELEMENT_THEORY = SGP/SGP4

EPOCH          = 2025-12-18T06:46:31.711872
MEAN_MOTION    = 15.43605501
ECCENTRICITY   = .0016874
INCLINATION    = 81.1048
RA_OF_ASC_NODE = 101.8531
ARG_OF_PERICENTER = 331.5741
MEAN_ANOMALY   = 28.4580

EPHEMERIS_TYPE = 0
CLASSIFICATION_TYPE = U
NORAD_CAT_ID   = 13819
ELEMENT_SET_NO = 999
REV_AT_EPOCH   = 34537
BSTAR          = .28923252E-3
MEAN_MOTION_DOT = .13109E-3
MEAN_MOTION_DDOT = 0

CCSDS_OMM_VERS = 2.0
CREATION_DATE  = 
ORIGINATOR     = 

OBJECT_NAME    = SL-3 R/B
OBJECT_ID      = 1983-075B
CENTER_NAME    = EARTH
REF_FRAME      = TEME
TIME_SYSTEM    = UTC
MEAN_ELEMENT_THEORY = SGP/SGP4

EPOCH          = 2025-12-18T06:12:47.771136
MEAN_MOTION    = 15.36245669
ECCENTRICITY   = .00233492
INCLINATION    = 97.6098
RA_OF_ASC_NODE = 348.9282
ARG_OF_PERICENTER = 156.1117
MEAN_ANOMALY   = 204.1215

EPHEMERIS_TYPE = 0
CLASSIFICATION_TYPE = U
NORAD_CAT_ID   = 14208
ELEMENT_SET_NO = 999
REV_AT_EPOCH   = 31764
BSTAR          = .26574707E-3
MEAN_MOTION_DOT = .9387E-4
MEAN_MOTION_DDOT = 0

CCSDS_OMM_VERS = 2.0
CREATION_DATE  = 
ORIGINATOR     = 

OBJECT_NAME    = COSMOS 1536
OBJECT_ID      = 1984-013A
CENTER_NAME    = EARTH
REF_FRAME      = TEME
TIME_SYSTEM    = UTC
MEAN_ELEMENT_THEORY = SGP/SGP4

EPOCH          = 2025-12-18T06:16:08.629536
MEAN_MOTION    = 15.22579372
ECCENTRICITY   = .00138983
INCLINATION    = 82.5443
RA_OF_ASC_NODE = 188.6881
ARG_OF_PERICENTER = 204.8151
MEAN_ANOMALY   = 155.2419

EPHEMERIS_TYPE = 0
CLASSIFICATION_TYPE = U
NORAD_CAT_ID   = 14699
ELEMENT_SET_NO = 999
REV_AT_EPOCH   = 26022
BSTAR          = .22077288E-3
MEAN_MOTION_DOT = .5171E-4
MEAN_MOTION_DDOT = 0

CCSDS_OMM_VERS = 2.0
CREATION_DATE  = 
ORIGINATOR     = 

OBJECT_NAME    = SL-14 R/B
OBJECT_ID      = 1984-027B
CENTER_NAME    = EARTH
REF_FRAME      = TEME
TIME_SYSTEM    = UTC
MEAN_ELEMENT_THEORY = SGP/SGP4

EPOCH          = 2025-12-18T06:42:36.905184
MEAN_MOTION    = 14.85880366
ECCENTRICITY   = .00165119
INCLINATION    = 82.5415
RA_OF_ASC_NODE = 321.3606
ARG_OF_PERICENTER = 240.7219
MEAN_ANOMALY   = 119.2347

EPHEMERIS_TYPE = 0
CLASSIFICATION_TYPE = U
NORAD_CAT_ID   = 14820
ELEMENT_SET_NO = 999
REV_AT_EPOCH   = 23554
BSTAR          = .47975723E-4
MEAN_MOTION_DOT = .443E-5
MEAN_MOTION_DDOT = 0

CCSDS_OMM_VERS = 2.0
CREATION_DATE  = 
ORIGINATOR     = 

OBJECT_NAME    = SL-8 R/B
OBJECT_ID      = 1985-006B
CENTER_NAME    = EARTH
REF_FRAME      = TEME
TIME_SYSTEM    = UTC
MEAN_ELEMENT_THEORY = SGP/SGP4

EPOCH          = 2025-12-18T05:58:41.903904
MEAN_MOTION    = 14.37724273
ECCENTRICITY   = .00189116
INCLINATION    = 74.0465
RA_OF_ASC_NODE = 50.9989
ARG_OF_PERICENTER = 342.0169
MEAN_ANOMALY   = 82.8749

EPHEMERIS_TYPE = 0
CLASSIFICATION_TYPE = U
NORAD_CAT_ID   = 15483
ELEMENT_SET_NO = 999
REV_AT_EPOCH   = 14232
BSTAR          = .72630058E-4
MEAN_MOTION_DOT = .193E-5
MEAN_MOTION_DDOT = 0

CCSDS_OMM_VERS = 2.0
CREATION_DATE  = 
ORIGINATOR     = 

OBJECT_NAME    = SL-12 R/B(2)
OBJECT_ID      = 1985-042D
CENTER_NAME    = EARTH
REF_FRAME      = TEME
TIME_SYSTEM    = UTC
MEAN_ELEMENT_THEORY = SGP/SGP4

EPOCH          = 2025-12-18T04:06:32.198400
MEAN_MOTION    = 14.21953584
ECCENTRICITY   = .00374865
INCLINATION    = 71.1079
RA_OF_ASC_NODE = 259.9457
ARG_OF_PERICENTER = 253.5679
MEAN_ANOMALY   = 211.2964

EPHEMERIS_TYPE = 0
CLASSIFICATION_TYPE = U
NORAD_CAT_ID   = 15772
ELEMENT_SET_NO = 999
REV_AT_EPOCH   = 10280
BSTAR          = .75883223E-4
MEAN_MOTION_DOT = .121E-5
MEAN_MOTION_DDOT = 0

CCSDS_OMM_VERS = 2.0
CREATION_DATE  = 
ORIGINATOR     = 

OBJECT_NAME    = SL-14 R/B
OBJECT_ID      = 1985-069B
CENTER_NAME    = EARTH
REF_FRAME      = TEME
TIME_SYSTEM    = UTC
MEAN_ELEMENT_THEORY = SGP/SGP4

EPOCH          = 2025-12-18T06:56:24.513504
MEAN_MOTION    = 14.86331008
ECCENTRICITY   = .00203384
INCLINATION    = 82.5272
RA_OF_ASC_NODE = 101.4861
ARG_OF_PERICENTER = 101.4214
MEAN_ANOMALY   = 258.9288

EPHEMERIS_TYPE = 0
CLASSIFICATION_TYPE = U
NORAD_CAT_ID   = 15945
ELEMENT_SET_NO = 999
REV_AT_EPOCH   = 16074
BSTAR          = .48672563E-4
MEAN_MOTION_DOT = .455E-5
MEAN_MOTION_DDOT = 0

CCSDS_OMM_VERS = 2.0
CREATION_DATE  = 
ORIGINATOR     = 

OBJECT_NAME    = SL-16 R/B
OBJECT_ID      = 1985-097B
CENTER_NAME    = EARTH
REF_FRAME      = TEME
TIME_SYSTEM    = UTC
MEAN_ELEMENT_THEORY = SGP/SGP4

EPOCH          = 2025-12-18T07:05:42.964224
MEAN_MOTION    = 14.16587281
ECCENTRICITY   = .00070568
INCLINATION    = 71.0037
RA_OF_ASC_NODE = 311.9061
ARG_OF_PERICENTER = 1.8244
MEAN_ANOMALY   = 101.5352

EPHEMERIS_TYPE = 0
CLASSIFICATION_TYPE = U
NORAD_CAT_ID   = 16182
ELEMENT_SET_NO = 999
REV_AT_EPOCH   = 7570
BSTAR          = .94226449E-4
MEAN_MOTION_DOT = .14E-5
MEAN_MOTION_DDOT = 0

CCSDS_OMM_VERS = 2.0
CREATION_DATE  = 
ORIGINATOR     = 

OBJECT_NAME    = SL-14 R/B
OBJECT_ID      = 1986-006B
CENTER_NAME    = EARTH
REF_FRAME      = TEME
TIME_SYSTEM    = UTC
MEAN_ELEMENT_THEORY = SGP/SGP4

EPOCH          = 2025-12-18T05:15:27.221184
MEAN_MOTION    = 14.86678851
ECCENTRICITY   = .00766395
INCLINATION    = 82.5267
RA_OF_ASC_NODE = 336.3951
ARG_OF_PERICENTER = 181.5626
MEAN_ANOMALY   = 178.5365

EPHEMERIS_TYPE = 0
CLASSIFICATION_TYPE = U
NORAD_CAT_ID   = 16496
ELEMENT_SET_NO = 999
REV_AT_EPOCH   = 13710
BSTAR          = .52865198E-4
MEAN_MOTION_DOT = .522E-5
MEAN_MOTION_DDOT = 0

CCSDS_OMM_VERS = 2.0
CREATION_DATE  = 
ORIGINATOR     = 

OBJECT_NAME    = COSMOS 1743
OBJECT_ID      = 1986-034A
CENTER_NAME    = EARTH
REF_FRAME      = TEME
TIME_SYSTEM    = UTC
MEAN_ELEMENT_THEORY = SGP/SGP4

EPOCH          = 2025-12-18T04:45:25.679232
MEAN_MOTION    = 15.52452958
ECCENTRICITY   = .0004763
INCLINATION    = 82.5338
RA_OF_ASC_NODE = 158.9207
ARG_OF_PERICENTER = 229.2843
MEAN_ANOMALY   = 130.7997

EPHEMERIS_TYPE = 0
CLASSIFICATION_TYPE = U
NORAD_CAT_ID   = 16719
ELEMENT_SET_NO = 999
REV_AT_EPOCH   = 16758
BSTAR          = .45397078E-3
MEAN_MOTION_DOT = .27848E-3
MEAN_MOTION_DDOT = 0

